ONEWEB-0531             
1 54146U 22138AK  25331.87093646 -.00000071  00000+0 -20762-3 0  9992
2 54146  87.9188 314.5838 0001203  59.7193 300.4059 13.20768600152737
ONEWEB-0535             
1 54147U 22138AL  25332.08897154  .00000017  00000+0  10928-4 0  9995
2 54147  87.9210 344.9603 0001421  93.4916 266.6380 13.19720754150319
ONEWEB-0536             
1 54148U 22138AM  25331.85832875 -.00000083  00000+0 -23488-3 0  9998
2 54148  87.9182 314.6309 0001327  52.3449 307.7805 13.20771395152720
ONEWEB-0527             
1 54642U 22166A   25331.89397446 -.00000004  00000+0 -41986-4 0  9999
2 54642  87.9203 284.1498 0001898  78.4210 281.7137 13.21826069144945
ONEWEB-0528             
1 54643U 22166B   25332.12766108  .00000073  00000+0  14515-3 0  9993
2 54643  87.9204 284.1071 0001938  78.9395 281.1957 13.21827009144981
ONEWEB-0539             
1 54644U 22166C   25332.16550470 -.00000061  00000+0 -17925-3 0  9998
2 54644  87.9206 284.0654 0001959  86.2510 273.8848 13.21824907144985
ONEWEB-0540             
1 54645U 22166D   25332.17220586  .00001196  00000+0  28635-2 0  9999
2 54645  87.9207 284.1017 0001984  84.0557 276.0803 13.21837493144975
ONEWEB-0542             
1 54646U 22166E   25332.09965951  .00000130  00000+0  28425-3 0  9998
2 54646  87.9201 284.0754 0001845  92.9178 267.2167 13.21829837144978
